ONEWEB-0350             
1 49214U 21083AE  25097.23166850  .00000337  00000+0  88911-3 0  9990
2 49214  87.8963  46.8578 0001675  88.1846 271.9475 13.13469430173702
ONEWEB-0351             
1 49215U 21083AF  25097.27885551  .00000067  00000+0  13342-3 0  9997
2 49215  87.9327   1.2090 0001638  51.5795 308.5485 13.20770483179231
ONEWEB-0354             
1 49217U 21083AH  25097.22849191  .00000107  00000+0  23075-3 0  9993
2 49217  87.9329   1.2147 0001636  87.9090 272.2231 13.20771051180574
ONEWEB-0357             
1 49219U 21083AK  25097.22533633  .00000101  00000+0  21709-3 0  9992
2 49219  87.9327   1.2238 0001704  75.1162 285.0160 13.20773306179262
ONEWEB-0332             
1 49279U 21090A   25097.52043429  .00000227  00000+0  57873-3 0  9998
2 49279  87.9091  16.3614 0001936  71.1925 288.9414 13.14504881170348
ONEWEB-0347             
1 49280U 21090B   25097.29162129  .00000154  00000+0  34702-3 0  9998
2 49280  87.9330   1.2169 0002165  73.1491 286.9879 13.20773299173501
